{
    "links": {
        "self": "http://www.neowsapp.com/rest/v1/neo/3781412?api_key=iIulBulltgU6a56xZRHN4H3l9WmuAYTsLGpBGhQ2"
    },
    "id": "3781412",
    "neo_reference_id": "3781412",
    "name": "(2017 RU2)",
    "designation": "2017 RU2",
    "nasa_jpl_url": "http://ssd.jpl.nasa.gov/sbdb.cgi?sstr=3781412",
    "absolute_magnitude_h": 25.6,
    "estimated_diameter": {
        "kilometers": {
            "estimated_diameter_min": 0.0201629919,
            "estimated_diameter_max": 0.0450858206
        },
        "meters": {
            "estimated_diameter_min": 20.1629919443,
            "estimated_diameter_max": 45.0858206172
        },
        "miles": {
            "estimated_diameter_min": 0.0125286985,
            "estimated_diameter_max": 0.0280150214
        },
        "feet": {
            "estimated_diameter_min": 66.1515504905,
            "estimated_diameter_max": 147.9193637137
        }
    },
    "is_potentially_hazardous_asteroid": false,
    "close_approach_data": [
        {
            "close_approach_date": "2014-12-20",
            "close_approach_date_full": "2014-Dec-20 20:19",
            "epoch_date_close_approach": 1419106740000,
            "relative_velocity": {
                "kilometers_per_second": "21.074599925",
                "kilometers_per_hour": "75868.5597299356",
                "miles_per_hour": "47141.7725721925"
            },
            "miss_distance": {
                "astronomical": "0.4127459884",
                "lunar": "160.5581894876",
                "kilometers": "61745920.715684708",
                "miles": "38367136.0249886504"
            },
            "orbiting_body": "Earth"
        },
        {
            "close_approach_date": "2017-09-18",
            "close_approach_date_full": "2017-Sep-18 21:24",
            "epoch_date_close_approach": 1505769840000,
            "relative_velocity": {
                "kilometers_per_second": "8.9033863731",
                "kilometers_per_hour": "32052.190943071",
                "miles_per_hour": "19915.9849779321"
            },
            "miss_distance": {
                "astronomical": "0.0174383328",
                "lunar": "6.7835114592",
                "kilometers": "2608737.443231136",
                "miles": "1620994.2807202368"
            },
            "orbiting_body": "Earth"
        },
        {
            "close_approach_date": "2066-11-15",
            "close_approach_date_full": "2066-Nov-15 11:02",
            "epoch_date_close_approach": 3057044520000,
            "relative_velocity": {
                "kilometers_per_second": "8.3984034104",
                "kilometers_per_hour": "30234.2522773258",
                "miles_per_hour": "18786.3885886528"
            },
            "miss_distance": {
                "astronomical": "0.0145967747",
                "lunar": "5.6781453583",
                "kilometers": "2183646.403989889",
                "miles": "1356854.9572389082"
            },
            "orbiting_body": "Earth"
        },
        {
            "close_approach_date": "2069-08-19",
            "close_approach_date_full": "2069-Aug-19 07:07",
            "epoch_date_close_approach": 3144121620000,
            "relative_velocity": {
                "kilometers_per_second": "19.6126570489",
                "kilometers_per_hour": "70605.5653760569",
                "miles_per_hour": "43871.5525526949"
            },
            "miss_distance": {
                "astronomical": "0.3728798325",
                "lunar": "145.0502548425",
                "kilometers": "55782028.707956775",
                "miles": "34661345.371182495"
            },
            "orbiting_body": "Earth"
        }
    ],
    "orbital_data": {
        "orbit_id": "4",
        "orbit_determination_date": "2017-12-07 06:21:57",
        "first_observation_date": "2017-08-17",
        "last_observation_date": "2017-09-21",
        "data_arc_in_days": 35,
        "observations_used": 53,
        "orbit_uncertainty": "7",
        "minimum_orbit_intersection": ".00199523",
        "jupiter_tisserand_invariant": "3.633",
        "epoch_osculation": "2459000.5",
        "eccentricity": ".5227701438666843",
        "semi_major_axis": "2.025242095181754",
        "inclination": ".3502068179013366",
        "ascending_node_longitude": "30.44612711386545",
        "orbital_period": "1052.722355023482",
        "perihelion_distance": ".9665059937187236",
        "perihelion_argument": "357.7890137740257",
        "aphelion_distance": "3.083978196644785",
        "perihelion_time": "2459093.047875235985",
        "mean_anomaly": "328.3513559620274",
        "mean_motion": ".3419705093960599",
        "equinox": "J2000",
        "orbit_class": {
            "orbit_class_type": "APO",
            "orbit_class_description": "Near-Earth asteroid orbits which cross the Earth’s orbit similar to that of 1862 Apollo",
            "orbit_class_range": "a (semi-major axis) > 1.0 AU; q (perihelion) < 1.017 AU"
        }
    },
    "is_sentry_object": false
}